INTELSAT 902 (IS-902)   
1 26900U 01039A   26157.55116331 -.00000270  00000+0  00000+0 0  9994
2 26900   6.0917  71.9112 0004299   0.7285 330.6336  1.00270875 90585
INTELSAT 904 (IS-904)   
1 27380U 02007A   26157.62641043 -.00000213  00000+0  00000+0 0  9991
2 27380   6.8931  69.3106 0007136   0.5431  19.1983  1.00270083 51664
DIRECTV 5 (TEMPO 1)     
1 27426U 02023A   26157.89597936 -.00000044  00000+0  00000+0 0  9992
2 27426   4.8508  75.4379 0003438   9.0468  23.2740  1.00271734 88029
INTELSAT 905 (IS-905)   
1 27438U 02027A   26157.62664821  .00000106  00000+0  00000+0 0  9996
2 27438   6.7264  69.9270 0004148  14.1476 259.3517  1.00272837 51259
GALAXY 3C (G-3C)        
1 27445U 02030A   26157.89901271 -.00000139  00000+0  00000+0 0  9997
2 27445   3.7036  78.1133 0001887  30.7345  15.2584  1.00271677 46390
INTELSAT 906 (IS-906)   
1 27513U 02041A   26157.85917683  .00000026  00000+0  00000+0 0  9999
2 27513   5.7777  73.0464 0004739 356.9075 198.7563  1.00271022 86924
GALAXY 13 (HORIZONS-1)  
1 27954U 03044A   26157.74555199  .00000146  00000+0  00000+0 0  9993
2 27954   1.3933  83.9836 0002080 345.9000 303.6550  1.00272528 46465
INTELSAT 10-02          
1 28358U 04022A   26157.91758983  .00000002  00000+0  00000+0 0  9995
2 28358   0.0099 326.9651 0000638 193.5941  64.0941  1.00268840 80457
DIRECTV 8               
1 28659U 05019A   26157.60907700  .00000000  00000+0  00000+0 0  9993
2 28659   0.0168 349.7812 0003017  90.9190 274.5411  1.00269735 76965
GALAXY 28 (G-28)        
1 28702U 05022A   26157.84120494 -.00000187  00000+0  00000+0 0  9996
2 28702   3.2731  79.0560 0002773 355.9734  95.9444  1.00270730 51875
GALAXY 16 (G-16)        
1 29236U 06023A   26157.89823270 -.00000113  00000+0  00000+0 0  9997
2 29236   0.0042 194.4424 0002763 240.0424  45.1920  1.00272113 72874
DIRECTV 9S              
1 29494U 06043A   26157.89779936 -.00000100  00000+0  00000+0 0  9990
2 29494   2.3934  81.0264 0005115   5.5118  30.7961  1.00271756 51285
GALAXY 17 (G-17)        
1 31307U 07016B   26157.90100604 -.00000193  00000+0  00000+0 0  9991
2 31307   2.9454  80.0308 0004902  13.8844  40.7699  1.00272300 69704
INTELSAT 11 (IS-11)     
1 32253U 07044B   26157.88043742 -.00000195  00000+0  00000+0 0  9991
2 32253   3.5379  78.7941 0001781  79.2417 225.3121  0.99053786 68341
HORIZONS-2              
1 32388U 07063B   26157.90325939 -.00000240  00000+0  00000+0 0  9996
2 32388   2.5748  80.7522 0004085 353.9462  72.0204  1.00272659 67713
DIRECTV 11              
1 32729U 08013A   26157.61289036 -.00000112  00000+0  00000+0 0  9994
2 32729   0.0319 184.3775 0000563 219.2224 332.8948  1.00271783 45486
GALAXY 18 (G-18)        
1 32951U 08024A   26157.75083868  .00000039  00000+0  00000+0 0  9990
2 32951   0.0209  62.8204 0003223  22.8084 316.8325  1.00272583 45745
INTELSAT 25 (IS-25)     
1 33153U 08034A   26157.87965742 -.00000214  00000+0  00000+0 0  9995
2 33153   2.6810  80.4526 0001893  28.9966 270.1190  0.99020742 65587
GALAXY 19 (G-19)        
1 33376U 08045A   26157.61341036 -.00000127  00000+0  00000+0 0  9993
2 33376   0.0147  61.0528 0003082  21.4185 296.4012  1.00280536 64797
FM-5                    
1 35493U 09034A   26157.90074604 -.00000187  00000+0  00000+0 0  9996
2 35493   0.0158 291.7916 0000563  21.6762 179.9617  1.00272602 46542
INTELSAT 14 (IS-14)     
1 36097U 09064A   26157.90889274 -.00000260  00000+0  00000+0 0  9999
2 36097   0.0149 327.4978 0002839 123.4083  86.6298  1.00271694 60504
INTELSAT 15 (IS-15)     
1 36106U 09067A   26157.93465021 -.00000171  00000+0  00000+0 0  9997
2 36106   0.0155 330.3465 0002376 108.1154 238.5127  1.00271975 41129
DIRECTV 12              
1 36131U 09075A   26157.89745270 -.00000090  00000+0  00000+0 0  9996
2 36131   0.0416 138.1445 0000289 275.7524  61.7810  1.00271396 46455
INTELSAT 16 (IS-16)     
1 36397U 10006A   26157.90273939 -.00000231  00000+0  00000+0 0  9993
2 36397   0.0209  45.6090 0002204  43.7927  54.7170  1.00271191 59555
XM-5                    
1 37185U 10053A   26157.89502602 -.00000009  00000+0  00000+0 0  9994
2 37185   0.0650 273.0660 0002724 281.5377 267.7261  1.00270915 57388
INTELSAT 17 (IS-17)     
1 37238U 10065B   26157.93482850  .00000012  00000+0  00000+0 0  9996
2 37238   0.0047 317.7319 0002436 124.1281 216.0160  1.00272224 53140
INTELSAT 28 (IS-28)     
1 37392U 11016A   26157.91157942 -.00000211  00000+0  00000+0 0  9995
2 37392   1.7788  82.7501 0003954 353.2316 115.8174  1.00269278 53183
INTELSAT 18 (IS-18)     
1 37834U 11056A   26157.88217076  .00000067  00000+0  00000+0 0  9999
2 37834   0.0182 312.5605 0002251 137.1192 303.1997  1.00272956 53703
INTELSAT 22 (IS-22)     
1 38098U 12011A   26157.93213686 -.00000045  00000+0  00000+0 0  9990
2 38098   0.0179  56.8144 0001606   8.3952 237.7974  1.00273281  7083
INTELSAT 19 (IS-19)     
1 38356U 12030A   26157.87939741 -.00000043  00000+0  00000+0 0  9996
2 38356   0.0143  11.1606 0003136  72.3765 294.3413  1.00271500 50347
INTELSAT 20 (IS-20)     
1 38740U 12043A   26157.93135686 -.00000010  00000+0  00000+0 0  9994
2 38740   0.0055  91.1150 0001800  91.4425 116.5663  1.00267985 50646
